Id;Nombre;Apellido1;Apellido2;Sexo;Nif;Direccion;Municipio;Provincia;Cp;Movil;Telefono;Correo;Nacimiento;direccion_y;diireccion_y
1;José María;Casado;Gómez;H;94625044P;Plaza Obsesión Fuerte 157, 4º 1ª;Getafe;Madrid;28635;619-886-686;919-558-864;casado74@mail.com;13/01/1974;127;442
2;Ana María;Moral;Moreno;M;34915943B;Calle Sensibilidad 221, 4º;Cuart de Poblet;Valencia;46427;677-209-146;967-959-515;moral99@mail.es;23/11/1990;445;286
3;Manuel;Álvarez;Hernández;H;33221618G;Plaza Confesión Lista 15, 3º;Oleiros;La Coruña;15825;608-059-851;981-337-946;manalvarez@mail.net;24/09/1990;347;227
4;Ana María;Valenzuela;García;M;74085807R;Avenida de  Hamaca 191, 2º 1ª;Valdepeñas;Ciudad Real;13277;602-570-583;926-697-987;anvalenzuela@email.net;19/03/1994;456;410
5;Montserrat;León;Castellano;M;17251797A;Calle Residencia Valiente 160, 6º 3ª;San Cristóbal de la Laguna;S.C. de Tenerife;38634;694-063-501;922-754-266;mleon@email.es;08/03/2000;201;104
6;Antonio;García;Expósito;H;02880672Z;Paseo Evaluación Luminosa 164, 3º 2ª;Molina de Segura;Murcia;30012;639-267-225;968-873-108;antgarcia43@mail.es;26/01/1960;71;360
7;Pilar;Manzano;Salguero;M;61876380D;Paseo Disección Abstracta 214, 1º;Tarrasa;Barcelona;8165;695-536-142;934-239-540;pilmanzano79@email.es;02/02/1961;367;178
8;Pablo;Tena;Donoso;H;46070058T;Calle Juventud 27, 4º 3ª;Torrente;Valencia;46773;656-432-498;960-393-882;pab.tena@correo.com;05/06/1986;219;123
9;Juan Antonio;Camarasa;González;H;18883634J;Plaza Profesión 96, 2º 3ª;Santa Lucía de Tirajana;Las Palmas;35806;697-459-940;928-004-962;jua.camarasa@mail.es;21/02/1947;392;84
10;José María;Morón;Martínez;H;60871119D;Plaza  Objeto Deportivo 231, 6º;Requena;Valencia;46862;621-798-426;964-575-301;moron58@email.net;15/03/1976;49;410
11;María Carmen;Benítez;García;M;11819086F;Avenida de la Conjunción 61, 3;Granada;Granada;18591;605-930-076;958-199-252;benitez33@email.net;09/08/1985;192;422
12;María;Pérez;Sastre;M;43983197K;Paseo Vestigio 118, 3º 2ª;Almendralejo;Badajoz;6508;664-401-575;924-512-427;mariaperez94@mail.com;03/05/1995;182;165
13;Carlos;Flores;Calvo;H;87476735F;Calle de  Confesión Viajera 299, 4º 3ª;Manlleu;Barcelona;8345;643-886-672;931-460-880;c.flores@correo.com;20/10/1979;197;436
14;María Carmen;Martin;Corbacho;M;57252410M;Plaza Atribución 264, 3;Málaga;Málaga;29930;662-117-774;950-696-741;mmartin@email.net;08/08/1989;170;336
15;Ana;Gómez;Pitarch;M;58911764R;Paseo  Expedición 212, 2º 5ª;Las Palmas de G. C.;Las Palmas;35256;608-881-087;928-010-348;anagomez44@mail.es;20/09/1968;342;107
16;David;Lopera;Plana;H;15048089V;Plaza la Concesión Madura 114, 2º 2ª;Santa Pola;Alicante;3267;681-602-580;968-180-836;lopera98@mail.net;05/01/1980;154;82
17;María;Tamayo;Cantero;M;08588572G;Paseo Resolución 50, 3;Blanes;Gerona;17790;626-579-663;972-933-699;mar.tamayo@email.net;19/12/1959;72;113
18;Alejandro;Medina;Flor;H;98709508V;Calle de  Advocación 241, 6º 3ª;Villena;Alicante;3055;616-563-031;963-236-651;amedina@correo.com;07/08/1954;317;227
19;Josefa;Iglesias;Sánchez;M;62949435E;Calle Centímetro Aurífero 239, 3º;Barcelona;Barcelona;8626;641-292-898;931-545-412;jiglesias27@email.net;25/12/1977;495;309
20;Eduardo;Ruiz;Gracia;H;30872355F;Avenida Ave 202, 6º 5ª;Sevilla;Sevilla;41537;667-796-662;953-115-517;ruiz13@mail.es;04/08/1981;324;29
21;José;Sánchez;Elvira;H;57498921W;Avenida del Ovíparo Viejo 13, 1º 1ª;Madrid;Madrid;28975;654-276-150;919-684-766;jossanchez@correo.net;12/02/1984;296;371
22;Isabel;Fernández;Dura;M;20882719F;Avenida el Comezón 15, 3º;Alacuás;Valencia;46413;652-039-316;960-924-788;isabelfernandez@mail.es;11/07/1971;456;20
23;Juan;Sánchez;Collado;H;52476172Q;Plaza Resolución 96, 1;Lérida;Lérida;25102;637-675-711;973-215-817;j.sanchez@mail.com;11/04/1973;40;311
24;María;Delgado;Cabrera;M;01963140K;Avenida de la Transpiración Amorosa 194, 2º 6ª;Zaragoza;Zaragoza;50272;626-535-782;976-080-219;mdelgado@mail.es;13/06/1984;459;72
25;Roberto;Reyes;Serrano;H;74397228W;Avenida de lo Voluble Bajo 4, 4;Madrid;Madrid;28631;699-304-383;913-101-186;robertoreyes95@correo.com;08/06/1976;13;14
26;Ana;Jiménez;Guillen;M;86359323G;Paseo de  Preservación Eficiente 238, 4º;Barcelona;Barcelona;8312;681-056-673;930-954-578;ana.jimenez@correo.net;16/05/1951;84;488
27;Jaime;Saavedra;Hernández;H;44558063W;Paseo de la Enseñanza 200, 3º;Valencia;Valencia;46990;631-220-886;960-439-285;jaisaavedra@correo.net;25/12/1948;22;497
28;Daniel;Cadenas;Martínez;H;26547441J;Paseo del Abrupto 297, 4º 3ª;Telde;Las Palmas;35156;618-957-052;928-247-934;dancadenas27@correo.net;03/02/1956;177;488
29;Manuel;Ayala;Lorenzo;H;87326779B;Calle Arteriosclerosis Mentirosa 101, 1º;Jerez de la Frontera;Cádiz;11013;635-507-358;956-074-575;manuelayala7@email.net;14/06/1967;74;45
30;Antonio;Alonso;Liu;H;77837463N;Paseo de  Laringe Estricta 137, 2º 5ª;Madrid;Madrid;28443;606-205-692;914-012-801;ant.alonso@email.com;14/07/1993;163;89
31;Rocío;González;García;M;78166337D;Paseo Verosímil 175, 1º 4ª;Lérida;Lérida;25294;674-935-869;973-836-946;rgonzalez63@mail.es;03/05/1958;66;478
32;José Antonio;Capilla;Caro;H;85064773D;Paseo Convocatoria 255, 3º;Arona;S.C. de Tenerife;38563;649-079-546;922-054-574;capilla21@email.es;23/06/1951;149;355
33;Iván;Llopis;Cuevas;H;25527711B;Paseo Nobiliario Veloz 206, 3º;El Ejido;Almería;4508;617-262-161;950-356-210;ivan.llopis@correo.net;07/03/1955;258;220
34;Francisca;Aguirre;Moreno;M;05328717P;Avenida la Anorexia 76, 1º;Málaga;Málaga;29724;667-172-866;957-195-569;fraaguirre@email.com;18/04/1935;154;332
35;Francisco;Martínez;González;H;33659816Y;Avenida Función 296, 3º 6ª;Palma de Mallorca;Islas Baleares;7282;641-742-118;971-040-624;f.martinez@correo.net;22/02/1953;496;365
36;Mónica;Miralles;Hueso;M;57290650L;Plaza de la Genealogía 1, 2º 3ª;San Cristóbal de la Laguna;S.C. de Tenerife;38741;689-129-644;922-029-150;mmiralles96@correo.es;19/04/1958;24;92
37;Rafael;Martin;López;H;79467206K;Plaza Subida Lista 233, 4º 5ª;Barbate;Cádiz;11215;628-584-258;956-962-775;r.martin@correo.net;24/07/1958;42;146
38;David;Pérez;Ferrer;H;88576663Y;Avenida del Vivíparo 238, 3º 1ª;Barcelona;Barcelona;8225;649-968-582;932-067-604;dperez19@email.com;06/06/1956;2;262
39;Santiago;Roa;García;H;88692520N;Avenida Participación Viajera 287, 2;León;León;24339;692-718-139;987-165-833;sanroa@email.es;14/02/1959;219;17
40;Carlos;Castaño;Vidal;H;27366649F;Avenida Anverso Nuevo 292, 4;Elche;Alicante;3565;669-469-244;967-455-017;carcastaño25@correo.net;12/08/1974;177;316
41;Carlos;Saavedra;Montero;H;34979626F;Plaza  Jurídico 199, 4º 4ª;Santa Cruz de Tenerife;S.C. de Tenerife;38216;643-709-930;922-039-912;car.saavedra@mail.es;30/09/1940;310;312
42;María Amparo;Lázaro;Zambrano;M;71006228F;Plaza Transitivo 255, 2º;Carballo;La Coruña;15014;699-160-368;981-106-659;mariaamparolazaro@correo.net;21/10/1996;423;300
43;David;Flores;Quero;H;33521570J;Avenida Bípedo Nuevo 260 bis, 4;Sardañola del Vallés;Barcelona;8890;682-262-533;930-385-485;dflores@email.es;15/04/1962;498;164
44;Santiago;González;Sánchez;H;89022327E;Calle Complicación Joven 267 bis, 4;Palafrugell;Gerona;17361;668-185-732;972-306-541;sgonzalez@email.net;02/05/1986;396;497
45;Adrián;López;Vallejo;H;59799418Q;Avenida de  Endoplasmático Estudioso 55, 4º;Martorell;Barcelona;8763;631-045-208;931-674-725;adrlopez@email.com;26/06/1995;210;32
46;Marta;Romero;Fernández;M;54075954X;Calle Símbolo 224, 1;Santa Coloma de Gramanet;Barcelona;8617;610-746-946;934-151-366;marromero81@correo.com;07/04/1946;197;264
47;José María;Menéndez;Casero;H;30822469P;Avenida Comezón Cómico 211, 4º 1ª;Santiago de Compostela;La Coruña;15110;678-759-483;981-925-323;josmenendez@correo.es;17/11/1994;9;73
48;José;Aguirre;Flores;H;09309290V;Paseo Hallazgo 12, 4º;Cartagena;Murcia;30396;628-442-227;968-391-320;jaguirre37@email.net;06/12/1954;162;387
49;Francisco Javier;Ventura;Pérez;H;59597112H;Paseo lo Instructivo Rápido 118, 1º 5ª;Manresa;Barcelona;8015;624-910-049;936-794-788;franciscojavierventura@correo.es;02/10/1999;333;265
50;Ramón;Sánchez;Pérez;H;79973320C;Avenida Asunción Sincera 13, 1º;Alcalá de Henares;Madrid;28554;617-325-495;915-761-970;sanchez51@mail.com;01/01/1995;478;411
51;Ángeles;Rodríguez;García;M;34322147Y;Avenida de  Participación Cauta 108, 6º;Camargo;Cantabria;39066;633-056-413;942-455-910;arodriguez@correo.com;07/04/1950;383;363
52;María Carmen;Rodríguez;Espinosa;M;68917978L;Avenida Pasivo 222, 2º 2ª;Valencia;Valencia;46596;693-287-345;963-579-454;mar.rodriguez@email.net;09/03/1949;95;321
53;Juana;Vargas;Cruz;M;47086108W;Avenida Evaluación 215, 1;Irun;Guipúzcoa;20842;639-364-796;943-109-088;vargas79@mail.net;22/11/1968;1;413
54;Manuel;Montoya;Hita;H;51572704B;Calle Adivinanza 29, 3;Cuart de Poblet;Valencia;46209;635-183-553;965-707-356;manmontoya@correo.net;23/08/1935;339;101
55;Pedro;Romero;Domínguez;H;64427511A;Calle Envío Cruel 86, 4º;Vitoria;Álava;1406;612-289-364;945-679-871;pedromero@correo.net;11/09/1965;451;210
56;Luis;Martin;Hernández;H;40690157Y;Avenida Supervivencia 237, 3º 1ª;Salamanca;Salamanca;37797;662-720-322;923-842-623;luimartin92@correo.com;25/01/1957;21;119
57;Miguel;García;Ortega;H;52932952Q;Avenida Recibimiento 66, 3º 2ª;Sanlúcar de Barrameda;Cádiz;11789;656-324-805;956-560-770;miguelgarcia99@correo.es;18/12/1940;52;284
58;María Josefa;López;Cuello;M;56846873G;Plaza de la Zambullida 203, 1º;Zaragoza;Zaragoza;50033;635-466-834;976-715-849;lopez90@correo.es;28/02/1966;94;11
59;Francisco;Giménez;Fernández;H;94609225J;Avenida Centímetro 250, 6;Tarragona;Tarragona;43097;650-838-233;977-573-453;f.gimenez@email.es;10/04/1939;329;49
60;José Antonio;Cortes;González;H;12190897T;Avenida  Insercción Azul 139, 3º 3ª;Cornellá de Llobregat;Barcelona;8834;695-679-748;937-632-203;jcortes63@mail.com;26/04/1950;332;464
61;Carlos;López;Garcés;H;62108723Y;Plaza Bípedo Honesto 19, 6º 4ª;Adra;Almería;4618;675-201-670;950-005-613;carloslopez@email.com;21/02/1964;213;155
62;José;Gómez;Amador;H;79907554B;Plaza Posesión 269, 5º;Talavera de la Reina;Toledo;45695;657-291-013;925-904-391;josgomez@email.net;11/09/1995;317;355
63;Ana;López;Rodríguez;M;82523683M;Plaza Tragedia 282, 1º;Santa Cruz de Tenerife;S.C. de Tenerife;38981;601-687-229;922-533-030;analopez@email.net;20/11/1940;69;424
64;María Pilar;Matilla;Gil;M;64953299B;Paseo Invención 135, 4º 1ª;Alcobendas;Madrid;28905;684-055-110;911-070-679;marimatilla17@email.es;16/03/1990;339;241
65;Javier;Giner;López;H;25665814E;Paseo de  Predecesor Estricto 241, 1;Tarragona;Tarragona;43260;626-617-659;977-049-194;jginer@correo.es;10/03/1968;198;255
66;Juan;Vargas;Domínguez;H;67437564T;Plaza Esclavitud Sincera 216, 6º;Mataró;Barcelona;8064;698-367-478;931-329-815;juanvargas@email.com;20/07/1985;413;190
67;Daniel;Rojo;Ortega;H;06805034R;Avenida Representación Hermosa 25, 4;Palma de Mallorca;Islas Baleares;7116;637-108-935;971-210-175;daniel.rojo@correo.es;02/02/1938;375;22
68;Juana;Olivares;Ruiz;M;59865480E;Plaza  Exhortación 278, 1º;Alicante;Alicante;3256;605-190-056;961-852-863;j.olivares@correo.net;31/05/1933;351;176
69;Antonio;Pérez;Sepúlveda;H;09654928B;Paseo de  Devoción Sensata 188, 2º;Palma de Mallorca;Islas Baleares;7516;691-885-204;971-602-452;antonioperez@correo.net;28/01/1968;165;12
70;Antonio;Ibarra;Álvarez;H;31170592A;Plaza Jilguero Pequeño 300, 4;Villanueva y Geltrú;Barcelona;8445;642-330-075;937-846-734;antonioibarra@mail.es;05/04/1964;267;189
71;David;Iñiguez;Fernández;H;03982967B;Paseo Frase Artística 241, 3º;Córdoba;Córdoba;14584;620-659-228;957-020-853;diñiguez40@correo.es;17/01/1983;175;396
72;Fernando;Puig;Casanova;H;35073319K;Avenida de  Oleoducto 195, 6;Cartagena;Murcia;30593;696-297-898;968-806-092;fpuig63@mail.net;11/02/1962;340;405
73;Pablo;Quintero;Cano;H;81977742S;Calle Disociamiento Ácido 95, 3º 2ª;Pamplona;Navarra;31266;620-121-702;948-464-207;pabloquintero90@email.net;04/12/1936;120;476
74;María Rocío;Jurado;Becerra;M;00407325H;Paseo Flexibilidad Blanca 300, 1;Maracena;Granada;18133;644-002-659;958-127-592;marjurado99@correo.com;13/08/1944;376;400
75;Manuel;Montoro;Gabarri;H;48930660T;Paseo del Agudizamiento Rápido 79, 1º 2ª;Salamanca;Salamanca;37023;607-292-702;923-235-442;mmontoro@email.net;05/06/1998;443;141
76;Beatriz;Roca;Radu;M;19666125K;Avenida Asia Viejo 101, 1;Molina de Segura;Murcia;30294;674-990-711;968-978-683;roca81@email.com;07/05/1983;144;444
77;Javier;García;Álvarez;H;81260815K;Paseo la Procesión Etérea 77, 4;Carmona;Sevilla;41560;622-204-624;950-200-306;javgarcia@correo.es;01/12/1984;121;342
78;Pilar;Moreno;González;M;93481100S;Avenida de  Diversión Generosa 169, 4º;Vitoria;Álava;1528;640-379-020;945-319-257;moreno86@email.es;23/10/1975;210;108
79;María Ángeles;Velázquez;Carballo;M;42130364E;Paseo  Éxodo 200, 4º 6ª;Madrid;Madrid;28987;666-769-419;911-267-772;velazquez85@email.es;03/05/1979;463;396
80;Dolores;Barrachina;Planas;M;65336555H;Calle  Capacidad 167, 1º;Cádiz;Cádiz;11570;607-710-267;956-190-856;dbarrachina@email.es;17/06/1944;309;435
81;Miguel;Alcaraz;Vegas;H;56795684J;Paseo  Hallazgo Sonoro 62, 2º 2ª;Barcelona;Barcelona;8538;698-273-244;938-571-104;malcaraz@mail.com;17/11/1996;425;229
82;Paula;López;Maldonado;M;35345287Z;Plaza de la Conversación Sensata 7, 1;San Sebastián;Guipúzcoa;20728;605-233-944;943-303-103;plopez@correo.com;21/04/1984;436;477
83;Diego;Priego;Páez;H;51353617E;Avenida del Bisiesto 155, 2º 6ª;Málaga;Málaga;29383;653-729-911;952-127-829;diego.priego@correo.net;11/02/1990;59;184
84;Miguel Ángel;Restrepo;Molinero;H;66338688H;Avenida Lumen Ansioso 22, 2;Durango;Vizcaya;48572;633-880-116;949-589-567;miguerestrepo32@email.es;22/11/1999;446;367
85;Diego;Carbonell;Garrido;H;10959305N;Paseo Oleoducto 104, 4º 2ª;Ferrol;La Coruña;15531;677-482-409;981-298-174;dcarbonell67@email.es;17/11/1964;302;246
86;José Antonio;Martínez;Hernández;H;32199988B;Avenida Abiótico 113, 5º 6ª;Baracaldo;Vizcaya;48732;688-961-461;949-147-670;josmartinez12@correo.net;21/03/1986;109;64
87;Begoña;Sánchez;Echeverría;M;87740993H;Calle Simposio 260, 5;Melilla;Melilla;52278;684-516-027;954-064-323;begsanchez@correo.es;08/07/1999;268;170
88;Juan;García;Pérez;H;63248089K;Plaza Diptongo Caliente 232, 5;San Antonio Abad;Islas Baleares;7550;605-548-359;971-780-411;juangarcia58@email.net;26/02/1960;160;428
89;Isabel;Jiménez;Álvarez;M;48519202N;Plaza Endoplasmático Enfermo 23, 5º 4ª;Vinaroz;Castellón;12694;617-361-417;964-770-611;isajimenez@email.com;09/08/1996;84;48
90;Manuel;Blanca;Llopis;H;87006953T;Plaza la Comprensión 59, 1º;Mollet del Vallés;Barcelona;8788;667-497-320;932-802-396;blanca66@mail.es;27/11/1987;498;271
91;María;Espinar;De Jesús;M;59984993G;Paseo  Citoplasma Fácil 138, 3º;Santander;Cantabria;39596;620-690-984;942-482-142;mariaespinar80@mail.com;22/02/1954;201;205
92;Carlos;Contreras;Luna;H;48125552F;Avenida Examen 73, 6;Madrid;Madrid;28268;655-141-898;912-366-362;contreras56@correo.es;11/02/1936;287;63
93;Josefa;García;Herrera;M;04641706F;Avenida Discípulo Verde 31, 2º 1ª;Albacete;Albacete;2072;645-025-716;967-348-387;garcia51@mail.net;19/07/1973;85;78
94;Ana;Utrera;Moreira;M;23764522W;Calle  Renacimiento 228, 6º 1ª;Don Benito;Badajoz;6140;682-594-262;924-865-592;ana.utrera@mail.es;16/06/1973;345;342
95;Luis;Rojo;Pico;H;18225908H;Plaza de  Adjudicación Vieja 269, 1º 5ª;Vigo;Pontevedra;36512;613-415-683;986-115-207;lrojo@mail.net;18/01/1939;376;441
96;José Luis;Delgado;Martínez;H;60576606B;Plaza Discriminación Venenosa 249, 6º 6ª;Madrid;Madrid;28880;699-014-163;915-498-235;josdelgado@email.com;23/09/1999;131;67
97;Alicia;Dueñas;Martin;M;79869705C;Calle de la Bulimia 279, 4º;Fuenlabrada;Madrid;28259;620-868-228;910-298-565;alidueñas@email.com;13/06/1981;69;94
98;Sara;Velasco;Martínez;M;95465296R;Calle de  Vegetación 276, 1;Granada;Granada;18306;622-328-577;958-458-494;saravelasco39@mail.net;18/07/1994;266;220
99;Javier;Fernández;García;H;51018489G;Calle Concentración 245, 6º 6ª;Madrid;Madrid;28006;670-794-516;918-595-253;jav.fernandez@email.net;04/01/1979;6;114
100;Maite;Soto;Martin;M;14799443R;Plaza la Abreviatura 226, 6º;Lérida;Lérida;25499;696-853-657;973-740-354;soto60@correo.com;05/01/2000;464;331
101;José Luis;Míguez;Romero;H;36349324D;Avenida la Exclusión Resplandeciente 25, 3;Madrid;Madrid;28903;628-734-980;912-719-204;joseluismiguez@correo.es;21/02/1998;95;91
102;María José;Da Costa;Montoya;M;33173306S;Plaza de la Consistencia Sabia 274, 4º;Gijón;Asturias;33533;666-903-102;982-576-949;mardacosta@mail.com;04/05/1933;67;232
103;Carmen;Barbero;Serrano;M;83709572Z;Plaza Inducción Resplandeciente 30, 2;Alicante;Alicante;3673;617-816-692;966-296-639;cbarbero46@mail.net;25/06/1987;24;282
104;Silvia;Nieto;Batalla;M;22859106G;Plaza Sosiego 104, 6º 2ª;Alcobendas;Madrid;28108;646-209-838;915-419-043;sil.nieto@email.com;19/08/1983;212;173
105;Amparo;Peris;Franco;M;65008144R;Plaza  Babilonia 123, 3º 5ª;Málaga;Málaga;29902;663-182-287;956-869-104;amparoperis@email.es;12/10/1938;70;31
106;María Isabel;Ojeda;Viñas;M;49344623D;Plaza Torbellino 78, 2;Granollers;Barcelona;8982;690-709-429;938-897-375;mojeda@email.com;27/12/1943;182;269
107;Daniel;Reig;Domínguez;H;72025747M;Paseo Residencia 86, 2º;Córdoba;Córdoba;14285;656-980-987;957-381-305;dreig72@correo.com;26/02/1970;438;462
108;Isabel María;Matamoros;Rodríguez;M;55214387N;Calle de  Predecesor Sabio 88, 6º;Lalín;Pontevedra;36443;653-556-766;986-070-021;isamatamoros@email.es;30/03/1957;174;349
109;Isabel;Martí;Ramírez;M;99304117F;Plaza  Nucela 3, 3º;Mataró;Barcelona;8122;675-850-151;938-930-703;imarti15@email.net;08/11/1941;44;367
110;Pedro;González;González;H;73194666H;Plaza Adolescente 217, 1º 1ª;Pinto;Madrid;28657;640-481-457;918-516-458;pgonzalez@mail.es;03/09/1984;476;87
111;Ana María;Sánchez;Diez;M;36573157Y;Paseo Heterótrofo 168, 4º;Salamanca;Salamanca;37945;691-888-034;923-646-942;anamariasanchez25@email.com;18/01/1989;67;353
112;Raúl;Álvarez;Fuentes;H;06625906C;Paseo Coordinación Agotada 30, 1;Zaragoza;Zaragoza;50542;679-485-536;976-154-840;ralvarez41@mail.com;25/07/1957;460;305
113;Ana;Pérez;Calzada;M;45618954H;Plaza Objeto 123, 1;Oviedo;Asturias;33822;668-662-948;988-384-814;ana.perez@correo.es;16/01/1972;350;77
114;Pedro;Mancebo;Juan;H;31691212H;Paseo Buenaventura Aburrida 287, 4;Orihuela;Alicante;3093;646-772-279;964-115-072;pmancebo@correo.es;10/12/1971;66;81
115;Laura;Yang;Lozano;M;36373481Q;Calle Vegetación 32, 1º 1ª;Siero;Asturias;33708;698-603-316;986-722-687;laura.yang@correo.com;08/04/1946;386;240
116;María Pilar;López;Giner;M;50588274G;Calle Astringente Inquebrantable 56, 2º 2ª;Antequera;Málaga;29328;647-358-579;955-759-152;mlopez@email.net;12/05/1998;56;336
117;Francisca;Ballesta;Jones;M;23683104G;Calle de  Batalla 285, 3º 2ª;Madrid;Madrid;28388;614-089-004;911-078-338;fraballesta@email.es;29/12/1939;319;134
118;Sara;García;Heredia;M;02317354N;Calle de  Capitulación 34, 2;Durango;Vizcaya;48096;678-738-924;945-606-487;garcia3@correo.net;06/04/1958;105;287
119;Raquel;Vázquez;Sánchez;M;60993065D;Calle Guía Compasivo 174, 5º;Telde;Las Palmas;35331;629-265-265;928-752-475;vazquez27@mail.com;24/04/1943;250;97
120;Susana;Casals;Aranda;M;52892439Y;Paseo Objeción Veloz 170 bis, 2º;Badajoz;Badajoz;6387;650-912-137;924-054-802;scasals8@email.net;17/01/1976;281;440
121;Francisco;Vílchez;Rivera;H;24826975Q;Plaza Absorción Joven 158, 1º 3ª;Madrid;Madrid;28554;624-807-829;911-306-132;fravilchez@email.es;02/08/1979;429;123
122;Margarita;Padrón;Larios;M;38328606A;Paseo Centesimal Estricto 203, 4º;Almería;Almería;4391;658-689-819;950-766-252;marpadron76@mail.com;08/10/1972;329;206
123;Luis;Oliver;Sánchez;H;37666747S;Paseo de  Adversativo Generoso 244, 2;Sevilla;Sevilla;41563;679-927-199;952-350-820;luisoliver@email.net;20/02/1947;378;11
124;Rocío;Alcalde;Galán;M;11352638E;Calle el Vocabulario 208, 2º;Sagunto;Valencia;46742;658-704-212;962-594-800;rocalcalde@correo.com;16/09/1960;420;374
125;Alberto;Martin;García;H;67597697F;Avenida Bovino 120, 2;Ceuta;Ceuta;51604;649-450-508;956-214-154;albertomartin@email.com;19/04/1952;460;350
126;Marta;González;Ramos;M;15433353P;Calle Biosfera Moderna 263, 5º 4ª;Barcelona;Barcelona;8532;657-823-785;937-118-938;gonzalez80@email.com;18/07/1936;334;299
127;María Teresa;Rueda;Martin;M;80700728F;Avenida de la Violencia Generosa 30, 4º;Móstoles;Madrid;28036;685-842-701;916-740-773;marirueda@email.com;10/10/1998;297;300
128;Juan;Izquierdo;Coll;H;08774492S;Paseo Genoma 109, 5º;Málaga;Málaga;29375;649-906-058;956-958-696;juanizquierdo@mail.es;18/08/1951;101;439
129;José Manuel;Gil;González;H;19769223X;Calle Polinización Negra 170, 3;Viladecans;Barcelona;8714;669-354-997;932-045-771;josgil39@mail.com;17/11/1971;264;500
130;Pedro;Martínez;Santacruz;H;93731050R;Calle Reminiscencia 200, 2º 6ª;Castellar del Vallés;Barcelona;8335;635-645-518;935-809-882;pmartinez@email.com;18/08/1971;133;465
131;Rafael;Ruiz;Rodríguez;H;07576584Q;Paseo Excelencia Hermosa 276, 3;Guecho;Vizcaya;48338;624-728-973;945-972-773;rafaelruiz@correo.es;09/08/1959;138;75
132;Anna;Sánchez;Gutiérrez;M;94435693Q;Calle Polinización 137, 5º 5ª;Puebla de Vallbona;Valencia;46601;692-350-195;961-711-405;ann.sanchez@correo.es;16/12/1950;14;104
133;Alba;Lara;Martínez;M;04370934Z;Avenida Nacimiento 5, 4;Úbeda;Jaén;23870;663-267-143;953-296-147;alara@mail.es;20/06/1940;206;484
134;Ana;Martin;Martin;M;42612933M;Paseo  División Ácida 219, 1;Premiá de Mar;Barcelona;8564;641-447-332;932-004-916;martin41@email.com;23/09/1954;350;134
135;Miguel;Orta;Sánchez;H;96836287P;Paseo la Semblanza 99, 2º 4ª;Vinaroz;Castellón;12419;672-091-977;964-186-545;mig.orta@email.com;01/04/1958;277;480
136;Eduardo;Solís;Veiga;H;43099386P;Calle la Obediencia Ácida 173 bis, 4º 3ª;Jerez de la Frontera;Cádiz;11996;685-491-891;956-189-723;edusolis@email.net;13/04/1993;319;92
137;Patricia;Asensio;Gómez;M;45476257J;Calle Viscosa Mentirosa 54, 1º 2ª;Málaga;Málaga;29241;680-290-622;952-870-566;patriciaasensio@correo.net;24/05/1992;490;313
138;Beatriz;Montoya;Lobato;M;70055936Y;Paseo Brevedad 52, 6º;Rivas-Vaciamadrid;Madrid;28589;667-956-702;913-829-427;bmontoya@email.com;09/06/1974;441;66
139;Manuel;Herreros;Iglesias;H;56007913S;Plaza de la Depresión 116, 4º;Torrelodones;Madrid;28324;653-042-431;914-754-767;manuelherreros@email.net;08/07/1977;289;242
140;Sergio;Velásquez;Rodríguez;H;26311325S;Calle de la Parábola Generosa 184, 1;Las Palmas de G. C.;Las Palmas;35632;699-995-924;928-983-488;svelasquez@mail.net;29/04/1946;398;164
141;Dolores;Castañeda;García;M;64483293X;Avenida de  Citoplasma 93, 3º;Badalona;Barcelona;8726;677-124-032;936-439-605;dolorescastañeda24@correo.net;02/04/1936;284;76
142;José;Martínez;Alonso;H;89052486M;Avenida de  Religión 238, 3;Cádiz;Cádiz;11703;624-621-375;956-142-636;jos.martinez@email.com;27/02/1995;207;48
143;Dolores;Rodríguez;Sánchez;M;21833985Q;Plaza Adicción 275, 4;Sevilla;Sevilla;41737;666-338-848;955-725-443;dolrodriguez@mail.com;20/10/1979;490;331
144;Dolors;González;Gijón;M;05119931Q;Avenida de  Adversidad 100 bis, 6;Palma de Mallorca;Islas Baleares;7516;660-366-903;971-689-370;gonzalez56@mail.com;24/02/1945;336;254
145;María Carmen;Jiménez;Román;M;29751498D;Plaza  Conmutativo Amoroso 124, 1º;Figueras;Gerona;17278;638-863-089;972-879-474;marjimenez91@correo.com;09/05/1938;157;292
146;Alfonso;Diez;Palacios;H;44051503V;Paseo Adjetivo Liberal 153, 1;Figueras;Gerona;17403;691-406-515;972-025-453;diez23@email.com;07/07/1972;422;462
147;Teresa;Montero;Guzmán;M;70573941M;Avenida Báscula 128, 3º 4ª;Calahorra;La Rioja;26688;682-189-410;941-471-135;t.montero@mail.com;10/07/1948;32;149
148;Josefa;Salvador;Bravo;M;70574791G;Paseo Envoltura 191, 5;Valencia;Valencia;46582;616-093-257;968-159-399;jossalvador39@mail.net;24/11/1991;242;68
149;Juan Antonio;Luque;Romero;H;65359983D;Calle Disección Valiente 90, 1;Carmona;Sevilla;41740;603-409-435;958-189-127;jluque@mail.com;24/12/1948;470;464
150;Antonio;Ferrer;Carazo;H;15392430W;Plaza Entrevista 252, 5;Santander;Cantabria;39492;692-118-061;942-048-566;ant.ferrer@correo.net;15/03/1996;381;276
151;Noelia;Castillo;Pérez;M;93149512H;Plaza de  Abovedado Generoso 261, 1º;Madrid;Madrid;28636;692-704-771;915-122-779;noecastillo@mail.net;25/02/1937;79;80
152;Antonia;Méndez;Suarez;M;74351571T;Plaza Agilidad 253, 1º;Barcelona;Barcelona;8991;675-422-406;939-911-318;mendez16@email.es;27/01/1959;53;430
153;Carmen;González;Barrachina;M;71767825M;Plaza Connotación Abierta 28, 2º 6ª;Paiporta;Valencia;46069;656-815-193;964-459-872;c.gonzalez@correo.com;27/03/1971;373;323
154;Jorge;De Pablo;Martin;H;85980022L;Paseo el Centímetro 251, 1;Los Palacios y Villafranca;Sevilla;41868;630-171-670;954-101-485;d55@email.es;26/04/1994;301;397
155;José Antonio;Palenzuela;García;H;42981767B;Plaza Hervido 7, 2º 4ª;Sanlúcar de Barrameda;Cádiz;11114;662-899-921;956-396-199;joseantoniopalenzuela@correo.es;31/10/1976;252;483
156;David;Nicolás;Martínez;H;14178272Z;Avenida de  Simposio Azul 182, 4º 1ª;Villarrobledo;Albacete;2820;656-425-663;967-016-408;davnicolas32@correo.com;02/04/1990;103;116
157;Marta;Sáez;Rosell;M;36361984L;Calle de  Herbívoro Marrón 57, 6º;Cambrils;Tarragona;43778;629-480-993;977-180-526;saez50@mail.com;21/04/1960;387;468
158;Andrea;Cazorla;Serrano;M;84243368A;Avenida Covalente 43, 4º 4ª;Baracaldo;Vizcaya;48952;648-493-415;945-783-189;and.cazorla@mail.es;05/04/1974;312;112
159;María Carmen;Bou;Cabrera;M;02576327M;Calle el Universo Inteligente 172, 4;Sagunto;Valencia;46229;636-719-938;967-436-422;marbou@email.net;15/04/1959;44;32
160;Francisco Javier;Castro;Garrido;H;65728319T;Calle  Cocina 228, 1º;Guecho;Vizcaya;48986;661-075-030;948-272-185;fracastro@email.com;21/06/1954;187;394
161;Carmen;Ruiz;Gaya;M;93257912L;Plaza Afluencia 217, 3º 4ª;Ronda;Málaga;29744;630-862-144;957-250-894;ruiz95@mail.com;30/01/1976;213;462
162;José Luis;Pereira;García;H;53252589E;Avenida Medieval 242, 2;Molins de Rey;Barcelona;8210;662-768-434;937-574-840;jospereira@email.net;09/04/1934;200;160
163;Esther;González;Fariña;M;36037426Z;Paseo el Nucela 29, 3;Valladolid;Valladolid;47704;633-960-733;983-274-110;e.gonzalez@mail.com;05/04/1962;336;355
164;José;Sánchez;Fernández;H;11932332R;Calle  Adhesión 108, 6;Rota;Cádiz;11358;665-253-726;956-272-912;jsanchez@correo.es;30/11/1988;325;47
165;José Luis;Arana;López;H;77757563Z;Avenida Persuasión 54, 1º 4ª;Chirivella;Valencia;46204;670-535-780;961-719-494;josarana@mail.es;15/05/1935;382;106
166;Manuel;Sánchez;Sánchez;H;30106720L;Calle Versículo Culto 293, 4;Calpe;Alicante;3724;613-539-128;961-690-615;manuelsanchez@correo.net;14/03/1942;305;185
167;José Antonio;Lorenzo;Giménez;H;85460150Q;Calle la Recepción 81 bis, 3º;Las Palmas de G. C.;Las Palmas;35373;674-430-269;928-926-795;joslorenzo@mail.net;28/12/1981;280;253
168;José;Rodríguez;Cerda;H;69171116L;Paseo  Actitud 169, 1º 2ª;Las Palmas de G. C.;Las Palmas;35075;600-189-388;928-803-530;josrodriguez@correo.net;08/12/1973;273;125
169;Montserrat;Barreiro;Alonso;M;30371183M;Paseo el Clásico 255, 6º 6ª;Gáldar;Las Palmas;35246;648-534-824;928-967-758;m.barreiro@mail.net;08/12/1980;189;271
170;Rafael;Gómez;Medina;H;35232484A;Avenida de la Responsabilidad Alta 206, 3;Ferrol;La Coruña;15535;681-445-531;981-976-298;gomez52@mail.net;07/07/1958;158;292
171;Daniel;Serrano;Olivares;H;58054900W;Plaza Organogénesis Agotada 53 bis, 1º;Llucmajor;Islas Baleares;7802;694-762-835;971-989-282;danielserrano21@email.es;15/02/1990;399;244
172;Juana;Clemente;Martin;M;02494455J;Plaza Persistencia Menguante 274, 6º 1ª;Elda;Alicante;3527;691-329-861;962-480-224;jclemente73@email.es;14/06/1985;246;363
173;Rubén;Murcia;Ramírez;H;95002745A;Avenida de la Hectárea Vieja 95, 1º;Palma de Mallorca;Islas Baleares;7494;643-984-349;971-576-026;rubmurcia@mail.es;10/05/1994;94;330
174;Carmen;Pérez;Rodríguez;M;15674101S;Avenida  Evaporación Alta 199, 6º;Zaragoza;Zaragoza;50990;629-895-502;976-297-433;carperez23@correo.com;22/09/1963;191;116
175;José Manuel;Martínez;Jiménez;H;64799915Z;Plaza de  Expedición 242, 4º 5ª;Palma de Mallorca;Islas Baleares;7377;672-954-339;971-647-848;jos.martinez@email.es;24/01/1974;154;380
176;Pilar;Rovira;Rodríguez;M;96703969D;Calle de  Fraternidad 7, 4º 4ª;Cartagena;Murcia;30248;634-551-796;968-810-499;rovira44@mail.com;11/12/1973;467;164
177;María Dolores;Avilés;Ruiz;M;74176748T;Paseo de la Sílaba 173, 5º;Lugo;Lugo;27332;617-146-554;982-288-021;aviles74@mail.com;17/02/1948;371;132
178;Rafael;Soler;Martin;H;55983319P;Avenida de  Advertencia 291, 6º;Molina de Segura;Murcia;30894;699-921-163;968-100-787;rafaelsoler67@correo.es;05/10/1980;325;250
179;Carmen;Alvarado;Martínez;M;68371850A;Plaza Auscultación 18 bis, 6;Villena;Alicante;3598;620-921-123;964-493-957;caralvarado@email.net;17/03/1937;286;473
180;Mercedes;Sanz;Barriga;M;65202601Q;Plaza el Mesías 219, 5;Córdoba;Córdoba;14271;665-899-663;957-386-178;mersanz@mail.net;29/06/1973;121;490
181;Juan;Giménez;Moreno;H;82298884P;Avenida de  Composición 163, 5º;Valencia;Valencia;46655;666-016-314;968-149-811;juagimenez36@correo.net;25/08/1970;337;73
182;Joan;De los Ríos;Palacios;H;42160275X;Paseo de  Astronauta 29, 3;Ávila;Ávila;5389;629-910-883;920-053-795;joad@mail.net;07/01/1998;179;62
183;Pablo;Cebrián;Hernández;H;37470528D;Plaza de la Bombilla Luminosa 163, 4;Málaga;Málaga;29055;696-779-905;950-661-921;pab.cebrian@mail.com;14/12/1937;327;461
184;Concepción;Valle;Álvarez;M;15146825Z;Avenida Jurisdicción Ancha 170, 4;Cornellá de Llobregat;Barcelona;8469;679-484-551;938-563-454;cvalle@email.net;24/06/1973;17;222
185;José;Espín;Fernández;H;43692463F;Plaza de la Exhibición 13, 3º 4ª;Mijas;Málaga;29000;663-380-494;954-446-649;espin98@correo.com;18/09/1940;208;317
186;Josefa;Gaspar;Martin;M;30377430L;Calle  Envío 294, 2;Barcelona;Barcelona;8102;667-499-308;931-332-031;gaspar26@email.es;17/09/1998;346;368
187;Cristina;Calero;Blanco;M;13626286M;Plaza la Fábula 35, 1º;Santa Perpetua de Moguda;Barcelona;8854;689-720-517;932-404-786;ccalero@mail.net;25/01/1953;30;454
188;Óscar;Marcos;Galán;H;86927587F;Calle la Biosfera Liberal 11 bis, 4º;Cornellá de Llobregat;Barcelona;8475;677-522-416;933-816-965;marcos12@email.es;19/03/1972;96;14
189;Isabel;Moya;Martin;M;03100011W;Paseo Consejo 90, 5º;Madrid;Madrid;28529;695-342-213;912-593-697;imoya@mail.net;24/02/1940;325;199
190;Juan;Rocha;Esteve;H;02052741Z;Paseo de la Repercusión 218, 2;Catarroja;Valencia;46511;675-411-716;960-409-305;juan.rocha@mail.net;03/01/1956;341;208
191;Francisco;Martínez;Zheng;H;21617803B;Avenida de  Jabalina Abstracta 121, 1º 6ª;Puertollano;Ciudad Real;13290;621-597-067;926-739-048;martinez14@mail.es;02/04/1947;144;414
192;Miguel;Lucas;Cruz;H;69395821Z;Paseo la Sinalefa 109, 5º;Pamplona;Navarra;31668;691-429-609;948-724-598;mlucas@email.com;14/04/1982;135;191
193;Agustín;Marín;González;H;69167800S;Paseo del Desahogo Ansioso 232, 4º;Granada;Granada;18509;634-739-336;958-024-739;marin68@correo.es;26/11/1982;7;155
194;Isabel;Ramírez;Pérez;M;66769360S;Plaza Expansión Nueva 148, 3;Zaragoza;Zaragoza;50519;698-768-003;976-453-579;iramirez@mail.net;22/11/1993;108;405
195;Sara;Gamiz;Barreto;M;38898257J;Plaza del Clavo 144, 4;Medina del Campo;Valladolid;47815;699-316-227;983-948-964;s.gamiz@email.com;22/07/1946;109;429
196;Amaia;Fernández;Rivera;M;23219213T;Paseo Longitud Humilde 291, 5;Benidorm;Alicante;3982;602-886-687;965-188-046;amafernandez@mail.com;25/02/1983;400;439
197;Javier;Suarez;Jiménez;H;31454312H;Avenida Hidrólisis Alta 151, 3º 3ª;Leganés;Madrid;28358;682-881-010;919-991-437;javiersuarez@email.net;07/09/1996;457;354
198;Ana María;Parada;De la Fuente;M;03104736N;Paseo Bombilla 172, 2;Badalona;Barcelona;8741;682-286-169;930-497-957;anparada63@email.com;15/08/1965;118;165
199;Daniel;Castro;Torres;H;33955523W;Paseo el Audiovisual Sensato 222, 2;Almería;Almería;4766;605-560-530;950-505-957;d.castro@mail.net;06/02/1961;245;412
200;Francisco José;Ramos;Rosario;H;71020867H;Plaza Transpiración Abierta 287, 5;Linares;Jaén;23827;609-013-545;953-753-468;f.ramos@correo.es;09/06/1969;401;338
